      2.10          N: GNSS NAV DATA                        RINEX VERSION / TYPE
fic2rin                                 06/29/2021 00:17:10 PGM / RUN BY / DATE
                                                            END OF HEADER
31 21  6 28 14  0  0.0-1.256256364286e-04-2.160049916711e-12 0.000000000000e+00
    9.900000000000e+01 1.306250000000e+01 4.919133473083e-09-1.064969165360e+00
    6.314367055893e-07 1.003100594971e-02 5.533918738365e-06 5.153552143097e+03
    1.368000000000e+05 1.341104507446e-07-9.054467658236e-01-1.210719347000e-07
    9.556124313792e-01 2.620312500000e+02 2.669638182632e-01-8.223556829865e-09
    2.510818871398e-10 1.000000000000e+00 2.164000000000e+03 0.000000000000e+00
    2.400000000000e+00 0.000000000000e+00-1.303851604462e-08 9.900000000000e+01
    1.296000000000e+05 4.000000000000e+00
22 21  6 28 14  0  0.0-5.770386196673e-04 9.549694368616e-12 0.000000000000e+00
    5.500000000000e+01-1.098125000000e+02 5.029495212949e-09 1.260586217276e+00
   -5.958601832390e-06 6.964482716285e-03 5.494803190231e-06 5.153803947449e+03
    1.368000000000e+05 1.359730958939e-07-3.125302193267e+00-8.009374141693e-08
    9.357342493160e-01 2.570625000000e+02-9.334298300363e-01-8.399635592824e-09
   -2.753686130652e-10 1.000000000000e+00 2.164000000000e+03 0.000000000000e+00
    2.400000000000e+00 0.000000000000e+00-1.769512891769e-08 5.500000000000e+01
    1.296000000000e+05 4.000000000000e+00
19 21  6 28 14  0  0.0 1.931330189109e-05 5.002220859751e-12 0.000000000000e+00
    4.600000000000e+01 1.242187500000e+02 3.970522531058e-09-1.538994279826e+00
    6.550922989845e-06 9.321700781584e-03 8.208677172661e-06 5.153646636963e+03
    1.368000000000e+05-1.639127731323e-07 1.269123538010e+00 1.583248376846e-07
    9.803294578340e-01 2.353125000000e+02 1.872832732646e+00-7.875685196758e-09
    9.893269237232e-11 1.000000000000e+00 2.164000000000e+03 0.000000000000e+00
    2.400000000000e+00 0.000000000000e+00-1.536682248116e-08 4.600000000000e+01
    1.296000000000e+05 4.000000000000e+00
15 21  6 28 14  0  0.0-1.392546109855e-04 2.614797267597e-12 0.000000000000e+00
    1.040000000000e+02-5.256250000000e+01 4.970207029073e-09 1.394190752590e+00
   -2.672895789146e-06 1.325319905300e-02 1.112744212151e-05 5.153644819260e+03
    1.368000000000e+05-2.440065145493e-07-2.095358960111e+00-5.587935447693e-09
    9.289406084364e-01 1.530312500000e+02 9.935179817718e-01-8.327846888250e-09
    3.032269163325e-10 1.000000000000e+00 2.164000000000e+03 0.000000000000e+00
    2.400000000000e+00 0.000000000000e+00-1.071020960808e-08 1.040000000000e+02
    1.296000000000e+05 4.000000000000e+00
21 21  6 28 14  0  0.0 1.279404386878e-04 2.387423592154e-12 0.000000000000e+00
    5.200000000000e+01 3.481250000000e+01 4.794485423848e-09 2.432851634539e+00
    1.987442374229e-06 2.402100723702e-02 9.667128324509e-07 5.153675203323e+03
    1.368000000000e+05 4.246830940247e-07 2.136739240840e+00 3.725290298462e-08
    9.574117372304e-01 3.510625000000e+02-1.120556266341e+00-8.171054642938e-09
   -2.196520065306e-10 1.000000000000e+00 2.164000000000e+03 0.000000000000e+00
    2.400000000000e+00 0.000000000000e+00-1.024454832077e-08 5.200000000000e+01
    1.296000000000e+05 4.000000000000e+00
26 21  6 28 14  0  0.0 1.040468923748e-04 4.774847184308e-12 0.000000000000e+00
    9.600000000000e+01-5.000000000000e-01 5.081640242142e-09-2.194757054818e+00
   -2.868473529816e-07 5.912222899497e-03 8.679926395416e-06 5.153581005096e+03
    1.368000000000e+05 1.862645149231e-09 7.139816304865e-02-1.545995473862e-07
    9.417965672073e-01 2.038437500000e+02 3.035070598416e-01-8.197127157534e-09
   -3.300137463972e-10 1.000000000000e+00 2.164000000000e+03 0.000000000000e+00
    2.400000000000e+00 0.000000000000e+00 6.984919309616e-09 9.600000000000e+01
    1.296000000000e+05 4.000000000000e+00
25 21  6 28 14  0  0.0 1.640194095671e-04 6.821210263297e-12 0.000000000000e+00
    1.010000000000e+02 6.750000000000e+00 4.655193907512e-09-1.514788705624e+00
    4.693865776062e-07 9.844730026089e-03 8.601695299149e-06 5.153606561661e+03
    1.368000000000e+05 2.142041921616e-07 1.140305363438e-01-1.303851604462e-08
    9.608966231442e-01 2.124062500000e+02 9.708849406377e-01-7.919972755798e-09
   -3.582292073987e-10 1.000000000000e+00 2.164000000000e+03 0.000000000000e+00
    2.400000000000e+00 0.000000000000e+00 5.587935447693e-09 1.010000000000e+02
    1.296000000000e+05 4.000000000000e+00
24 21  6 28 14  0  0.0 1.525948755443e-04 1.625721779419e-11 0.000000000000e+00
    8.200000000000e+01 1.603125000000e+01 5.487014270454e-09 4.370498322169e-01
    7.841736078262e-07 1.117559242994e-02 6.116926670074e-06 5.153716508865e+03
    1.368000000000e+05-5.587935447693e-08-1.001462226739e+00 1.695007085800e-07
    9.346549683368e-01 2.504687500000e+02 7.427348025715e-01-8.597500977568e-09
    1.878649681871e-10 1.000000000000e+00 2.164000000000e+03 0.000000000000e+00
    3.400000000000e+00 0.000000000000e+00 2.793967723846e-09 8.200000000000e+01
    1.296000000000e+05 4.000000000000e+00
23 21  6 28 14  0  0.0 9.152386337519e-05-4.661160346586e-12 0.000000000000e+00
    1.220000000000e+02-1.100625000000e+02 4.278749655669e-09-3.223083879066e-01
   -5.764886736870e-06 1.339341979474e-03 6.694346666336e-06 5.153660110474e+03
    1.368000000000e+05 8.940696716309e-08-3.051235354577e+00-1.508742570877e-07
    9.649912079629e-01 2.585625000000e+02 2.617320223722e+00-8.006762085208e-09
   -2.957266039144e-10 1.000000000000e+00 2.164000000000e+03 0.000000000000e+00
    2.400000000000e+00 0.000000000000e+00-8.381903171539e-09 6.340000000000e+02
    1.296000000000e+05 4.000000000000e+00
18 21  6 28 14  0  0.0 3.443481400609e-04-2.160049916711e-12 0.000000000000e+00
    1.080000000000e+02 1.215625000000e+01 4.587691095749e-09 4.153359454378e-01
    3.688037395477e-07 1.586322090589e-03 2.164393663406e-06 5.153656705856e+03
    1.368000000000e+05-4.470348358154e-08 2.232636160041e+00 3.539025783539e-08
    9.683905102432e-01 3.394062500000e+02 2.879423223101e+00-8.369991500885e-09
   -1.021471119801e-10 1.000000000000e+00 2.164000000000e+03 0.000000000000e+00
    2.400000000000e+00 0.000000000000e+00-8.381903171539e-09 3.640000000000e+02
    1.296000000000e+05 4.000000000000e+00
28 21  6 28 14  0  0.0 5.470123142004e-04-6.480149750132e-12 0.000000000000e+00
    5.500000000000e+01 1.950000000000e+01 4.211961159374e-09 2.826932486251e+00
    8.735805749893e-07 1.747591805179e-02 9.717419743538e-06 5.153730373383e+03
    1.368000000000e+05 3.743916749954e-07 2.101507904697e-01 1.862645149231e-08
    9.727047609891e-01 1.939062500000e+02-1.345572212141e+00-7.508527046004e-09
   -4.918061999880e-10 1.000000000000e+00 2.164000000000e+03 0.000000000000e+00
    2.400000000000e+00 6.300000000000e+01-1.117587089539e-08 5.500000000000e+01
    1.296000000000e+05 4.000000000000e+00
 2 21  6 28 16  0  0.0-6.157709285617e-04-2.842170943040e-12 0.000000000000e+00
    6.200000000000e+01 2.825000000000e+01 4.777699010341e-09 1.402658886076e+00
    9.350478649139e-07 2.018717140891e-02 1.981854438782e-06 5.153702903748e+03
    1.440000000000e+05-1.490116119385e-08 2.136804507468e+00-5.736947059631e-07
    9.632458047913e-01 3.435312500000e+02-1.509871748722e+00-8.492139445980e-09
    8.143196339671e-11 1.000000000000e+00 2.164000000000e+03 0.000000000000e+00
    2.400000000000e+00 0.000000000000e+00-1.769512891769e-08 6.200000000000e+01
    1.368000000000e+05 4.000000000000e+00
 1 21  6 28 16  0  0.0 6.444794125855e-04-1.159605744760e-11 0.000000000000e+00
    6.900000000000e+01 1.553125000000e+01 4.340180785951e-09 1.115647365728e+00
    9.667128324509e-07 1.103552512359e-02 2.864748239517e-06 5.153681859970e+03
    1.440000000000e+05-9.872019290924e-08 2.221306345205e+00 2.011656761169e-07
    9.846601825004e-01 3.385625000000e+02 8.662267747593e-01-8.356776664720e-09
   -5.714523747137e-11 1.000000000000e+00 2.164000000000e+03 0.000000000000e+00
    2.400000000000e+00 0.000000000000e+00 5.122274160385e-09 6.900000000000e+01
    1.368000000000e+05 4.000000000000e+00
 3 21  6 28 16  0  0.0-2.049393951893e-04-1.102762325900e-11 0.000000000000e+00
    2.300000000000e+01-9.956250000000e+01 4.265177661770e-09 7.832783336580e-02
   -5.204230546951e-06 3.639868926257e-03 6.591901183128e-06 5.153576959610e+03
    1.440000000000e+05-2.607703208923e-08-3.024786851931e+00 1.676380634308e-08
    9.701182662340e-01 2.544062500000e+02 8.726138209654e-01-8.077479316579e-09
   -2.675111429129e-10 1.000000000000e+00 2.164000000000e+03 0.000000000000e+00
    2.400000000000e+00 0.000000000000e+00 1.862645149231e-09 2.300000000000e+01
    1.368000000000e+05 4.000000000000e+00
 5 21  6 28 16  0  0.0-4.630628973246e-05-1.136868377216e-12 0.000000000000e+00
    4.700000000000e+01-1.246875000000e+02 4.509830709694e-09-2.511223801637e+00
   -6.396323442459e-06 6.153407506645e-03 6.614252924919e-06 5.153907091141e+03
    1.440000000000e+05 7.636845111847e-08-3.062045817402e+00 0.000000000000e+00
    9.570824841100e-01 2.488750000000e+02 9.186944647977e-01-8.115338036403e-09
   -2.525105180766e-10 1.000000000000e+00 2.164000000000e+03 0.000000000000e+00
    2.400000000000e+00 0.000000000000e+00-1.117587089539e-08 4.700000000000e+01
    1.368000000000e+05 4.000000000000e+00
16 21  6 28 16  0  0.0-3.485549241304e-04-6.139089236967e-12 0.000000000000e+00
    1.100000000000e+01 9.062500000000e+00 4.227676099679e-09-2.039757575199e+00
    1.266598701477e-07 1.217880332842e-02 8.938834071159e-06 5.153716392517e+03
    1.440000000000e+05 9.685754776001e-08 2.065370434169e-01-1.378357410431e-07
    9.736048037823e-01 2.099687500000e+02 6.789160678308e-01-7.686391597634e-09
   -2.289381076197e-10 1.000000000000e+00 2.164000000000e+03 0.000000000000e+00
    2.400000000000e+00 0.000000000000e+00-1.024454832077e-08 1.100000000000e+01
    1.368000000000e+05 4.000000000000e+00
